OBJECT_NAME,OBJECT_ID,EPOCH,MEAN_MOTION,ECCENTRICITY,INCLINATION,RA_OF_ASC_NODE,ARG_OF_PERICENTER,MEAN_ANOMALY,EPHEMERIS_TYPE,CLASSIFICATION_TYPE,NORAD_CAT_ID,ELEMENT_SET_NO,REV_AT_EPOCH,BSTAR,MEAN_MOTION_DOT,MEAN_MOTION_DDOT
PERSEUS-M1,2014-033AF,2026-06-24T09:29:22.872768,14.95653705,.00098303,97.9646,119.6454,274.1508,85.8589,0,U,40039,999,65171,.17365344E-3,.1871E-4,0
POLYITAN-1,2014-033AJ,2026-06-25T00:19:40.937664,15.33506522,.00088686,98.0944,203.0157,119.8415,240.3708,0,U,40042,999,65479,.67060305E-3,.21694E-3,0
TIGRISAT,2014-033AK,2026-06-24T22:20:52.661184,14.85187769,.00502335,97.7840,325.7656,50.4069,310.1565,0,U,40043,999,64677,.2039231E-3,.1731E-4,0
AEROCUBE 6A,2014-033AM,2026-06-24T16:54:28.882080,14.98164163,.00383113,97.7238,342.5747,352.0324,8.0284,0,U,40045,999,64774,.33227949E-3,.3938E-4,0
AEROCUBE 6B,2014-033AN,2026-06-24T23:11:37.880160,14.99630893,.00378274,97.7235,342.6415,342.1616,17.8276,0,U,40046,999,64792,.39086334E-3,.4825E-4,0
CANX-4,2014-034C,2026-06-25T02:56:51.891648,14.81277779,.00125528,98.3114,51.7268,351.9882,8.1127,0,U,40055,999,64570,.12145529E-3,.891E-5,0
CANX-5,2014-034D,2026-06-25T04:31:44.787648,14.81295107,.00125504,98.3115,51.8392,352.0013,8.0996,0,U,40056,999,63652,.12090231E-3,.887E-5,0
UKUBE-1,2014-037F,2026-06-24T23:15:25.101792,15.13660442,.00029642,98.4237,180.0587,120.9120,239.2400,0,U,40074,999,64973,.52262968E-3,.9327E-4,0
BRITE-PL2 (HEWELIUSZ),2014-049B,2026-06-25T06:33:18.324864,14.94623028,.00154142,97.9105,288.3356,83.8801,276.4174,0,U,40119,999,64265,.18244304E-3,.192E-4,0
AEROCUBE 5C,2015-058B,2026-06-25T06:49:09.830784,14.91483805,.01311382,64.7654,237.4006,60.1237,301.2830,0,U,40965,999,36686,.17527063E-3,.1893E-4,0
AEROCUBE 7,2015-058C,2026-06-25T06:10:32.977632,14.95766737,.01208721,64.7609,219.5376,58.4955,302.7902,0,U,40966,999,36716,.26312055E-3,.3225E-4,0
FOX-1A (AO-85),2015-058D,2026-06-24T17:32:12.626016,14.90997570,.01308801,64.7739,255.5404,53.6729,307.6381,0,U,40967,999,11469,.16308393E-3,.1723E-4,0
SINOD-D 1,2015-058E,2026-06-25T05:37:24.124800,14.95947479,.01195896,64.7741,233.7115,49.8991,311.2532,0,U,40968,999,11786,.25496127E-3,.3125E-4,0
SNAP-3 ALICE,2015-058G,2026-06-25T02:50:10.682880,15.61960050,.00255954,64.7507,76.4812,7.4918,352.6606,0,U,40970,999,11812,.18483838E-2,.167907E-2,0
LMRST-SAT,2015-058H,2026-06-25T07:00:06.958944,14.90618998,.01325274,64.7745,250.1503,55.4754,305.8786,0,U,40971,999,11476,.16985571E-3,.1791E-4,0
SNAP-3 EDDIE,2015-058J,2026-06-25T00:54:28.247616,15.63150797,.00257396,64.7417,67.4251,10.8094,349.3601,0,U,40972,999,12025,.15597589E-2,.148087E-2,0
PROPCUBE 3,2015-058K,2026-06-25T05:46:19.074720,14.94293605,.01244742,64.7674,227.3734,56.7386,304.5582,0,U,40973,999,11600,.23449932E-3,.2762E-4,0
BISONSAT,2015-058L,2026-06-25T06:39:45.544608,15.16377580,.00800288,64.7573,147.4833,43.9823,316.7632,0,U,40974,999,11684,.83933924E-3,.17605E-3,0
SNAP-3 JIMI,2015-058M,2026-06-25T07:27:02.365056,15.02365341,.01065998,64.7632,194.0693,52.0896,308.9800,0,U,40975,999,11544,.41910383E-3,.6109E-4,0
PROPCUBE 1 (FLORA),2015-058N,2026-06-24T10:45:32.477184,14.89248217,.01311337,64.7740,272.7316,58.1038,303.2752,0,U,40976,999,11734,.16338281E-3,.1644E-4,0
SINOD-D 3,2015-058P,2026-06-24T11:17:08.591712,14.94050814,.01196815,64.7721,253.0760,55.2388,305.9922,0,U,40977,999,11584,.20385294E-3,.2332E-4,0
HORYU-4,2016-012D,2026-06-24T22:09:51.695136,16.04340254,.00084519,30.9835,21.9003,319.1648,40.8382,0,U,41340,999,57205,.12684942E-2,.887715E-2,.38475701E-3
RAVAN,2016-067B,2026-06-25T05:11:09.417408,15.55412182,.0003047,97.9880,66.7191,3.7244,356.4031,0,U,41849,999,52894,.91273489E-3,.62417E-3,0
CELTEE 1,2016-067C,2026-06-25T02:35:56.137632,15.19752018,.00013972,98.0670,43.2156,129.0761,231.0596,0,U,41850,999,52708,.2901279E-3,.6128E-4,0
OPTICUBE 04,2016-067D,2026-06-25T02:22:47.248608,15.09690402,.00170283,98.0695,28.7953,90.9437,269.3742,0,U,41851,999,52636,.12699815E-3,.198E-4,0
AEROCUBE 8D,2016-067E,2026-06-25T07:04:33.038976,15.24500200,.00049868,98.0681,47.0831,103.9487,256.2303,0,U,41852,999,52730,.34796576E-3,.8478E-4,0
AEROCUBE 8C,2016-067F,2026-06-25T02:55:06.756672,15.24747896,.00061548,98.0551,44.1138,47.3359,312.8394,0,U,41853,999,52727,.35919194E-3,.8822E-4,0
CORVUS BC2,2017-042X,2026-06-24T21:36:53.130816,15.06342159,.00147821,97.4074,336.9510,86.7538,273.5381,0,U,42846,999,48822,.21210254E-3,.3067E-4,0
CORVUS BC1,2017-042Y,2026-06-24T23:03:32.092704,15.06505398,.00133077,97.4100,337.8281,65.7846,294.4771,0,U,42847,999,48826,.18198174E-3,.2634E-4,0
MAKERSAT 0,2017-073D,2026-06-24T10:17:55.746816,15.32301022,.01048473,97.4622,58.0052,246.7219,112.2959,0,U,43016,999,46757,.42577588E-3,.15733E-3,0
