[{"id":"40039","name":"PERSEUS-M1","tle1":"1 40039U 14033AF  26175.39540362  .00001871  00000+0  17365-3 0  9991","tle2":"2 40039  97.9646 119.6454 0009830 274.1508  85.8589 14.95653705651714"},{"id":"40042","name":"POLYITAN-1","tle1":"1 40042U 14033AJ  26176.01366826  .00021694  00000+0  67060-3 0  9998","tle2":"2 40042  98.0944 203.0157 0008868 119.8415 240.3708 15.33506522654790"},{"id":"40043","name":"TIGRISAT","tle1":"1 40043U 14033AK  26175.93116506  .00001731  00000+0  20392-3 0  9994","tle2":"2 40043  97.7840 325.7656 0050233  50.4069 310.1565 14.85187769646776"},{"id":"40045","name":"AEROCUBE 6A","tle1":"1 40045U 14033AM  26175.70450095  .00003938  00000+0  33228-3 0  9998","tle2":"2 40045  97.7238 342.5747 0038311 352.0324   8.0284 14.98164163647741"},{"id":"40046","name":"AEROCUBE 6B","tle1":"1 40046U 14033AN  26175.96641065  .00004825  00000+0  39086-3 0  9990","tle2":"2 40046  97.7235 342.6415 0037827 342.1616  17.8276 14.99630893647925"},{"id":"40055","name":"CANX-4","tle1":"1 40055U 14034C   26176.12282282  .00000891  00000+0  12146-3 0  9999","tle2":"2 40055  98.3114  51.7268 0012552 351.9882   8.1127 14.81277779645706"},{"id":"40056","name":"CANX-5","tle1":"1 40056U 14034D   26176.18871282  .00000887  00000+0  12090-3 0  9993","tle2":"2 40056  98.3115  51.8392 0012550 352.0013   8.0996 14.81295107636521"},{"id":"40074","name":"UKUBE-1","tle1":"1 40074U 14037F   26175.96904053  .00009327  00000+0  52263-3 0  9998","tle2":"2 40074  98.4237 180.0587 0002964 120.9120 239.2400 15.13660442649736"},{"id":"40119","name":"BRITE-PL2 (HEWELIUSZ)","tle1":"1 40119U 14049B   26176.27312876  .00001920  00000+0  18244-3 0  9994","tle2":"2 40119  97.9105 288.3356 0015414  83.8801 276.4174 14.94623028642659"},{"id":"40965","name":"AEROCUBE 5C","tle1":"1 40965U 15058B   26176.28414156  .00001893  00000+0  17527-3 0  9991","tle2":"2 40965  64.7654 237.4006 0131138  60.1237 301.2830 14.91483805366865"},{"id":"40966","name":"AEROCUBE 7","tle1":"1 40966U 15058C   26176.25732613  .00003225  00000+0  26312-3 0  9993","tle2":"2 40966  64.7609 219.5376 0120872  58.4955 302.7902 14.95766737367169"},{"id":"40967","name":"FOX-1A (AO-85)","tle1":"1 40967U 15058D   26175.73070169  .00001723  00000+0  16308-3 0  9992","tle2":"2 40967  64.7739 255.5404 0130880  53.6729 307.6381 14.90997570114691"},{"id":"40968","name":"SINOD-D 1","tle1":"1 40968U 15058E   26176.23430700  .00003125  00000+0  25496-3 0  9996","tle2":"2 40968  64.7741 233.7115 0119589  49.8991 311.2532 14.95947479117862"},{"id":"40970","name":"SNAP-3 ALICE","tle1":"1 40970U 15058G   26176.11817920  .00167907  00000+0  18484-2 0  9996","tle2":"2 40970  64.7507  76.4812 0025595   7.4918 352.6606 15.61960050118128"},{"id":"40971","name":"LMRST-SAT","tle1":"1 40971U 15058H   26176.29174721  .00001791  00000+0  16986-3 0  9995","tle2":"2 40971  64.7745 250.1503 0132527  55.4754 305.8786 14.90618998114763"},{"id":"40972","name":"SNAP-3 EDDIE","tle1":"1 40972U 15058J   26176.03782694  .00148087  00000+0  15598-2 0  9999","tle2":"2 40972  64.7417  67.4251 0025739  10.8094 349.3601 15.63150797120256"},{"id":"40973","name":"PROPCUBE 3","tle1":"1 40973U 15058K   26176.24049855  .00002762  00000+0  23450-3 0  9994","tle2":"2 40973  64.7674 227.3734 0124474  56.7386 304.5582 14.94293605116002"},{"id":"40974","name":"BISONSAT","tle1":"1 40974U 15058L   26176.27761047  .00017605  00000+0  83934-3 0  9997","tle2":"2 40974  64.7573 147.4833 0080028  43.9823 316.7632 15.16377580116846"},{"id":"40975","name":"SNAP-3 JIMI","tle1":"1 40975U 15058M   26176.31044404  .00006109  00000+0  41910-3 0  9999","tle2":"2 40975  64.7632 194.0693 0106599  52.0896 308.9800 15.02365341115440"},{"id":"40976","name":"PROPCUBE 1 (FLORA)","tle1":"1 40976U 15058N   26175.44829256  .00001644  00000+0  16338-3 0  9994","tle2":"2 40976  64.7740 272.7316 0131133  58.1038 303.2752 14.89248217117345"},{"id":"40977","name":"SINOD-D 3","tle1":"1 40977U 15058P   26175.47023833  .00002332  00000+0  20385-3 0  9997","tle2":"2 40977  64.7721 253.0760 0119681  55.2388 305.9922 14.94050814115841"},{"id":"41340","name":"HORYU-4","tle1":"1 41340U 16012D   26175.92351499  .00887715  38476-3  12685-2 0  9996","tle2":"2 41340  30.9835  21.9003 0008451 319.1648  40.8382 16.04340254572050"},{"id":"41849","name":"RAVAN","tle1":"1 41849U 16067B   26176.21608122  .00062417  00000+0  91273-3 0  9994","tle2":"2 41849  97.9880  66.7191 0003047   3.7244 356.4031 15.55412182528947"},{"id":"41850","name":"CELTEE 1","tle1":"1 41850U 16067C   26176.10828863  .00006128  00000+0  29013-3 0  9990","tle2":"2 41850  98.0670  43.2156 0001397 129.0761 231.0596 15.19752018527084"},{"id":"41851","name":"OPTICUBE 04","tle1":"1 41851U 16067D   26176.09915797  .00001980  00000+0  12700-3 0  9998","tle2":"2 41851  98.0695  28.7953 0017028  90.9437 269.3742 15.09690402526363"},{"id":"41852","name":"AEROCUBE 8D","tle1":"1 41852U 16067E   26176.29482684  .00008478  00000+0  34797-3 0  9994","tle2":"2 41852  98.0681  47.0831 0004986 103.9487 256.2303 15.24500200527303"},{"id":"41853","name":"AEROCUBE 8C","tle1":"1 41853U 16067F   26176.12160598  .00008822  00000+0  35919-3 0  9994","tle2":"2 41853  98.0551  44.1138 0006154  47.3359 312.8394 15.24747896527275"},{"id":"42846","name":"CORVUS BC2","tle1":"1 42846U 17042X   26175.90061494  .00003067  00000+0  21210-3 0  9996","tle2":"2 42846  97.4074 336.9510 0014782  86.7538 273.5381 15.06342159488222"},{"id":"42847","name":"CORVUS BC1","tle1":"1 42847U 17042Y   26175.96078811  .00002634  00000+0  18198-3 0  9994","tle2":"2 42847  97.4100 337.8281 0013307  65.7846 294.4771 15.06505398488264"},{"id":"43016","name":"MAKERSAT 0","tle1":"1 43016U 17073D   26175.42911744  .00015733  00000+0  42578-3 0  9992","tle2":"2 43016  97.4622  58.0052 0104847 246.7219 112.2959 15.32301022467578"}]